[{"OBJECT_NAME":"ONEWEB-0296","OBJECT_ID":"2021-075L","EPOCH":"2026-03-09T21:31:32.308608","MEAN_MOTION":13.12443009,"ECCENTRICITY":0.00020028,"INCLINATION":87.9007,"RA_OF_ASC_NODE":10.3675,"ARG_OF_PERICENTER":70.4296,"MEAN_ANOMALY":289.7049,"EPHEMERIS_TYPE":0,"CLASSIFICATION_TYPE":"U","NORAD_CAT_ID":49085,"ELEMENT_SET_NO":999,"REV_AT_EPOCH":22155,"BSTAR":0.0015030332,"MEAN_MOTION_DOT":5.53e-6,"MEAN_MOTION_DDOT":0},{"OBJECT_NAME":"COSMOS 252 DEB","OBJECT_ID":"1968-097H","EPOCH":"2026-03-09T15:55:45.465888","MEAN_MOTION":13.08433626,"ECCENTRICITY":0.09089174,"INCLINATION":62.3171,"RA_OF_ASC_NODE":165.0158,"ARG_OF_PERICENTER":153.052,"MEAN_ANOMALY":212.0845,"EPHEMERIS_TYPE":0,"CLASSIFICATION_TYPE":"U","NORAD_CAT_ID":3555,"ELEMENT_SET_NO":999,"REV_AT_EPOCH":72378,"BSTAR":0.0001690308,"MEAN_MOTION_DOT":3.69e-6,"MEAN_MOTION_DDOT":0}]
